CCSDS_OMM_VERS = 2.0
CREATION_DATE  = 
ORIGINATOR     = 

OBJECT_NAME    = KUIPER-00130
OBJECT_ID      = 2025-228N
CENTER_NAME    = EARTH
REF_FRAME      = TEME
TIME_SYSTEM    = UTC
MEAN_ELEMENT_THEORY = SGP/SGP4

EPOCH          = 2025-10-26T10:54:38.413728
MEAN_MOTION    = 15.34352709
ECCENTRICITY   = .000541
INCLINATION    = 51.8802
RA_OF_ASC_NODE = 248.3757
ARG_OF_PERICENTER = 192.3571
MEAN_ANOMALY   = 167.7283

EPHEMERIS_TYPE = 0
CLASSIFICATION_TYPE = U
NORAD_CAT_ID   = 65959
ELEMENT_SET_NO = 999
REV_AT_EPOCH   = 315
BSTAR          = .93913E-3
MEAN_MOTION_DOT = .31479E-3
MEAN_MOTION_DDOT = 0

CCSDS_OMM_VERS = 2.0
CREATION_DATE  = 
ORIGINATOR     = 

OBJECT_NAME    = KUIPER-00134
OBJECT_ID      = 2025-228P
CENTER_NAME    = EARTH
REF_FRAME      = TEME
TIME_SYSTEM    = UTC
MEAN_ELEMENT_THEORY = SGP/SGP4

EPOCH          = 2025-10-26T10:55:48.063360
MEAN_MOTION    = 15.34234947
ECCENTRICITY   = .000524
INCLINATION    = 51.8798
RA_OF_ASC_NODE = 248.3802
ARG_OF_PERICENTER = 195.6339
MEAN_ANOMALY   = 164.4485

EPHEMERIS_TYPE = 0
CLASSIFICATION_TYPE = U
NORAD_CAT_ID   = 65960
ELEMENT_SET_NO = 999
REV_AT_EPOCH   = 315
BSTAR          = .82413E-3
MEAN_MOTION_DOT = .27458E-3
MEAN_MOTION_DDOT = 0

CCSDS_OMM_VERS = 2.0
CREATION_DATE  = 
ORIGINATOR     = 

OBJECT_NAME    = KUIPER-00135
OBJECT_ID      = 2025-228Q
CENTER_NAME    = EARTH
REF_FRAME      = TEME
TIME_SYSTEM    = UTC
MEAN_ELEMENT_THEORY = SGP/SGP4

EPOCH          = 2025-10-26T10:55:12.681696
MEAN_MOTION    = 15.34231562
ECCENTRICITY   = .000519
INCLINATION    = 51.8814
RA_OF_ASC_NODE = 248.3849
ARG_OF_PERICENTER = 184.0433
MEAN_ANOMALY   = 176.0511

EPHEMERIS_TYPE = 0
CLASSIFICATION_TYPE = U
NORAD_CAT_ID   = 65961
ELEMENT_SET_NO = 999
REV_AT_EPOCH   = 315
BSTAR          = .80187E-3
MEAN_MOTION_DOT = .267E-3
MEAN_MOTION_DDOT = 0

CCSDS_OMM_VERS = 2.0
CREATION_DATE  = 
ORIGINATOR     = 

OBJECT_NAME    = KUIPER-00136
OBJECT_ID      = 2025-228R
CENTER_NAME    = EARTH
REF_FRAME      = TEME
TIME_SYSTEM    = UTC
MEAN_ELEMENT_THEORY = SGP/SGP4

EPOCH          = 2025-10-26T10:50:25.494144
MEAN_MOTION    = 15.34666488
ECCENTRICITY   = .0005765
INCLINATION    = 51.8809
RA_OF_ASC_NODE = 248.3627
ARG_OF_PERICENTER = 179.7278
MEAN_ANOMALY   = 180.3712

EPHEMERIS_TYPE = 0
CLASSIFICATION_TYPE = U
NORAD_CAT_ID   = 65962
ELEMENT_SET_NO = 999
REV_AT_EPOCH   = 315
BSTAR          = .97044E-3
MEAN_MOTION_DOT = .32878E-3
MEAN_MOTION_DDOT = 0

CCSDS_OMM_VERS = 2.0
CREATION_DATE  = 
ORIGINATOR     = 

OBJECT_NAME    = KUIPER-00137
OBJECT_ID      = 2025-228S
CENTER_NAME    = EARTH
REF_FRAME      = TEME
TIME_SYSTEM    = UTC
MEAN_ELEMENT_THEORY = SGP/SGP4

EPOCH          = 2025-10-26T07:47:08.508192
MEAN_MOTION    = 15.34318574
ECCENTRICITY   = .0005435
INCLINATION    = 51.8810
RA_OF_ASC_NODE = 249.0092
ARG_OF_PERICENTER = 190.5524
MEAN_ANOMALY   = 169.5349

EPHEMERIS_TYPE = 0
CLASSIFICATION_TYPE = U
NORAD_CAT_ID   = 65963
ELEMENT_SET_NO = 999
REV_AT_EPOCH   = 313
BSTAR          = .70083E-3
MEAN_MOTION_DOT = .23344E-3
MEAN_MOTION_DDOT = 0

CCSDS_OMM_VERS = 2.0
CREATION_DATE  = 
ORIGINATOR     = 

OBJECT_NAME    = KUIPER-00138
OBJECT_ID      = 2025-228T
CENTER_NAME    = EARTH
REF_FRAME      = TEME
TIME_SYSTEM    = UTC
MEAN_ELEMENT_THEORY = SGP/SGP4

EPOCH          = 2025-10-26T10:56:40.788096
MEAN_MOTION    = 15.34122307
ECCENTRICITY   = .0005885
INCLINATION    = 51.8804
RA_OF_ASC_NODE = 248.3865
ARG_OF_PERICENTER = 203.6943
MEAN_ANOMALY   = 156.3772

EPHEMERIS_TYPE = 0
CLASSIFICATION_TYPE = U
NORAD_CAT_ID   = 65964
ELEMENT_SET_NO = 999
REV_AT_EPOCH   = 315
BSTAR          = .90375E-3
MEAN_MOTION_DOT = .30052E-3
MEAN_MOTION_DDOT = 0

CCSDS_OMM_VERS = 2.0
CREATION_DATE  = 
ORIGINATOR     = 

OBJECT_NAME    = KUIPER-00140
OBJECT_ID      = 2025-228U
CENTER_NAME    = EARTH
REF_FRAME      = TEME
TIME_SYSTEM    = UTC
MEAN_ELEMENT_THEORY = SGP/SGP4

EPOCH          = 2025-10-26T10:57:39.509856
MEAN_MOTION    = 15.34086730
ECCENTRICITY   = .0005165
INCLINATION    = 51.8811
RA_OF_ASC_NODE = 248.3938
ARG_OF_PERICENTER = 204.6890
MEAN_ANOMALY   = 155.3849

EPHEMERIS_TYPE = 0
CLASSIFICATION_TYPE = U
NORAD_CAT_ID   = 65965
ELEMENT_SET_NO = 999
REV_AT_EPOCH   = 315
BSTAR          = .91723E-3
MEAN_MOTION_DOT = .3047E-3
MEAN_MOTION_DDOT = 0

CCSDS_OMM_VERS = 2.0
CREATION_DATE  = 
ORIGINATOR     = 

OBJECT_NAME    = KUIPER-00141
OBJECT_ID      = 2025-228V
CENTER_NAME    = EARTH
REF_FRAME      = TEME
TIME_SYSTEM    = UTC
MEAN_ELEMENT_THEORY = SGP/SGP4

EPOCH          = 2025-10-26T10:52:37.839072
MEAN_MOTION    = 15.34485820
ECCENTRICITY   = .0005743
INCLINATION    = 51.8804
RA_OF_ASC_NODE = 248.3668
ARG_OF_PERICENTER = 182.5306
MEAN_ANOMALY   = 177.5651

EPHEMERIS_TYPE = 0
CLASSIFICATION_TYPE = U
NORAD_CAT_ID   = 65966
ELEMENT_SET_NO = 999
REV_AT_EPOCH   = 315
BSTAR          = .84106E-3
MEAN_MOTION_DOT = .28261E-3
MEAN_MOTION_DDOT = 0

CCSDS_OMM_VERS = 2.0
CREATION_DATE  = 
ORIGINATOR     = 

OBJECT_NAME    = KUIPER-00146
OBJECT_ID      = 2025-228W
CENTER_NAME    = EARTH
REF_FRAME      = TEME
TIME_SYSTEM    = UTC
MEAN_ELEMENT_THEORY = SGP/SGP4

EPOCH          = 2025-10-26T10:53:02.044032
MEAN_MOTION    = 15.34450090
ECCENTRICITY   = .0005681
INCLINATION    = 51.8813
RA_OF_ASC_NODE = 248.3760
ARG_OF_PERICENTER = 184.2536
MEAN_ANOMALY   = 175.8402

EPHEMERIS_TYPE = 0
CLASSIFICATION_TYPE = U
NORAD_CAT_ID   = 65967
ELEMENT_SET_NO = 999
REV_AT_EPOCH   = 315
BSTAR          = .87347E-3
MEAN_MOTION_DOT = .29335E-3
MEAN_MOTION_DDOT = 0

CCSDS_OMM_VERS = 2.0
CREATION_DATE  = 
ORIGINATOR     = 

OBJECT_NAME    = KUIPER-00149
OBJECT_ID      = 2025-228X
CENTER_NAME    = EARTH
REF_FRAME      = TEME
TIME_SYSTEM    = UTC
MEAN_ELEMENT_THEORY = SGP/SGP4

EPOCH          = 2025-10-26T10:50:51.267264
MEAN_MOTION    = 15.34629414
ECCENTRICITY   = .0005697
INCLINATION    = 51.8806
RA_OF_ASC_NODE = 248.3600
ARG_OF_PERICENTER = 181.1000
MEAN_ANOMALY   = 178.9974

EPHEMERIS_TYPE = 0
CLASSIFICATION_TYPE = U
NORAD_CAT_ID   = 65968
ELEMENT_SET_NO = 999
REV_AT_EPOCH   = 315
BSTAR          = .88688E-3
MEAN_MOTION_DOT = .29966E-3
MEAN_MOTION_DDOT = 0

CCSDS_OMM_VERS = 2.0
CREATION_DATE  = 
ORIGINATOR     = 

OBJECT_NAME    = KUIPER-00154
OBJECT_ID      = 2025-228Y
CENTER_NAME    = EARTH
REF_FRAME      = TEME
TIME_SYSTEM    = UTC
MEAN_ELEMENT_THEORY = SGP/SGP4

EPOCH          = 2025-10-26T10:50:02.681088
MEAN_MOTION    = 15.34693936
ECCENTRICITY   = .0005832
INCLINATION    = 51.8808
RA_OF_ASC_NODE = 248.3571
ARG_OF_PERICENTER = 178.6795
MEAN_ANOMALY   = 181.4207

EPHEMERIS_TYPE = 0
CLASSIFICATION_TYPE = U
NORAD_CAT_ID   = 65969
ELEMENT_SET_NO = 999
REV_AT_EPOCH   = 315
BSTAR          = .1065E-2
MEAN_MOTION_DOT = .36167E-3
MEAN_MOTION_DDOT = 0

CCSDS_OMM_VERS = 2.0
CREATION_DATE  = 
ORIGINATOR     = 

OBJECT_NAME    = KUIPER-00157
OBJECT_ID      = 2025-228Z
CENTER_NAME    = EARTH
REF_FRAME      = TEME
TIME_SYSTEM    = UTC
MEAN_ELEMENT_THEORY = SGP/SGP4

EPOCH          = 2025-10-26T10:55:56.281728
MEAN_MOTION    = 15.34242074
ECCENTRICITY   = .0005796
INCLINATION    = 51.8813
RA_OF_ASC_NODE = 248.3880
ARG_OF_PERICENTER = 195.5747
MEAN_ANOMALY   = 164.5061

EPHEMERIS_TYPE = 0
CLASSIFICATION_TYPE = U
NORAD_CAT_ID   = 65970
ELEMENT_SET_NO = 999
REV_AT_EPOCH   = 315
BSTAR          = .51227E-3
MEAN_MOTION_DOT = .16905E-3
MEAN_MOTION_DDOT = 0

