KUIPER-00130            
1 65959U 25228N   25299.45461127  .00031479  00000+0  93913-3 0  9991
2 65959  51.8802 248.3757 0005410 192.3571 167.7283 15.34352709  3156
KUIPER-00134            
1 65960U 25228P   25299.45541740  .00027458  00000+0  82413-3 0  9998
2 65960  51.8798 248.3802 0005240 195.6339 164.4485 15.34234947  3153
KUIPER-00135            
1 65961U 25228Q   25299.45500789  .00026700  00000+0  80187-3 0  9992
2 65961  51.8814 248.3849 0005190 184.0433 176.0511 15.34231562  3154
KUIPER-00136            
1 65962U 25228R   25299.45168396  .00032878  00000+0  97044-3 0  9990
2 65962  51.8809 248.3627 0005765 179.7278 180.3712 15.34666488  3159
KUIPER-00137            
1 65963U 25228S   25299.32440403  .00023344  00000+0  70083-3 0  9991
2 65963  51.8810 249.0092 0005435 190.5524 169.5349 15.34318574  3138
KUIPER-00138            
1 65964U 25228T   25299.45602764  .00030052  00000+0  90375-3 0  9996
2 65964  51.8804 248.3865 0005885 203.6943 156.3772 15.34122307  3155
KUIPER-00140            
1 65965U 25228U   25299.45670729  .00030470  00000+0  91723-3 0  9995
2 65965  51.8811 248.3938 0005165 204.6890 155.3849 15.34086730  3151
KUIPER-00141            
1 65966U 25228V   25299.45321573  .00028261  00000+0  84106-3 0  9998
2 65966  51.8804 248.3668 0005743 182.5306 177.5651 15.34485820  3152
KUIPER-00146            
1 65967U 25228W   25299.45349588  .00029335  00000+0  87347-3 0  9998
2 65967  51.8813 248.3760 0005681 184.2536 175.8402 15.34450090  3157
KUIPER-00149            
1 65968U 25228X   25299.45198226  .00029966  00000+0  88688-3 0  9999
2 65968  51.8806 248.3600 0005697 181.1000 178.9974 15.34629414  3158
KUIPER-00154            
1 65969U 25228Y   25299.45141992  .00036167  00000+0  10650-2 0  9992
2 65969  51.8808 248.3571 0005832 178.6795 181.4207 15.34693936  3159
KUIPER-00157            
1 65970U 25228Z   25299.45551252  .00016905  00000+0  51227-3 0  9992
2 65970  51.8813 248.3880 0005796 195.5747 164.5061 15.34242074  3157
